CTC2_L_00308016-03
1 56671U 23922GM  26070.40846065  .00000000  00000+0  00000-0 0  9990
2 56671  80.0000 180.0000 0000000   0.0000   0.0000 13.72670257    15
CTC2_L_00308016-04
1 56672U 24537JP  26070.40846065  .00000000  00000+0  00000-0 0  9994
2 56672  80.0000 180.0000 0000000   0.0000  90.0000 13.72670257    15
CTC2_L_00308017-01
1 56673U 26031FL  26070.40846065  .00000000  00000+0  00000-0 0  9996
2 56673  80.0000 192.0000 0000000   0.0000 192.0000 13.72670257    12
CTC2_L_00308017-02
1 56674U 26904CN  26070.40846065  .00000000  00000+0  00000-0 0  9996
2 56674  80.0000 192.0000 0000000   0.0000 282.0000 13.72670257    13
CTC2_L_00308017-03
1 56675U 26742CB  26070.40846065  .00000000  00000+0  00000-0 0  9997
2 56675  80.0000 192.0000 0000000   0.0000  12.0000 13.72670257    15
CTC2_L_00308017-04
1 56676U 22283LA  26070.40846065  .00000000  00000+0  00000-0 0  9994
2 56676  80.0000 192.0000 0000000   0.0000 102.0000 13.72670257    16
CTC2_L_00308018-01
1 56677U 22609IJ  26070.40846065  .00000000  00000+0  00000-0 0  9997
2 56677  80.0000 204.0000 0000000   0.0000 204.0000 13.72670257    14
CTC2_L_00308018-02
1 56678U 25314KK  26070.40846065  .00000000  00000+0  00000-0 0  9994
2 56678  80.0000 204.0000 0000000   0.0000 294.0000 13.72670257    14
CTC2_L_00308018-03
1 56679U 26749BU  26070.40846065  .00000000  00000+0  00000-0 0  9998
2 56679  80.0000 204.0000 0000000   0.0000  24.0000 13.72670257    16
CTC2_L_00308018-04
1 56680U 24508ME  26070.40846065  .00000000  00000+0  00000-0 0  9991
2 56680  80.0000 204.0000 0000000   0.0000 114.0000 13.72670257    18
CTC2_L_00308019-01
1 56681U 24274OZ  26070.40846065  .00000000  00000+0  00000-0 0  9992
2 56681  80.0000 216.0000 0000000   0.0000 216.0000 13.72670257    15
CTC2_L_00308019-02
1 56682U 22749YK  26070.40846065  .00000000  00000+0  00000-0 0  9998
2 56682  80.0000 216.0000 0000000   0.0000 306.0000 13.72670257    16
CTC2_L_00308019-03
1 56683U 24955F   26070.40846065  .00000000  00000+0  00000-0 0  9990
2 56683  80.0000 216.0000 0000000   0.0000  36.0000 13.72670257    17
CTC2_L_00308019-04
1 56684U 22838VS  26070.40846065  .00000000  00000+0  00000-0 0  9999
2 56684  80.0000 216.0000 0000000   0.0000 126.0000 13.72670257    18
CTC2_L_00308020-01
1 56685U 26275ZA  26070.40846065  .00000000  00000+0  00000-0 0  9999
2 56685  80.0000 228.0000 0000000   0.0000 228.0000 13.72670257    15
CTC2_L_00308020-02
1 56686U 23102LV  26070.40846065  .00000000  00000+0  00000-0 0  9996
2 56686  80.0000 228.0000 0000000   0.0000 318.0000 13.72670257    16
CTC2_L_00308020-03
1 56687U 26876VQ  26070.40846065  .00000000  00000+0  00000-0 0  9998
2 56687  80.0000 228.0000 0000000   0.0000  48.0000 13.72670257    17
CTC2_L_00308020-04
1 56688U 25670EB  26070.40846065  .00000000  00000+0  00000-0 0  9990
2 56688  80.0000 228.0000 0000000   0.0000 138.0000 13.72670257    18
CTC2_L_00308021-01
1 56689U 22115JN  26070.40846065  .00000000  00000+0  00000-0 0  9992
2 56689  80.0000 240.0000 0000000   0.0000 240.0000 13.72670257    17
CTC2_L_00308021-02
1 56690U 24104XI  26070.40846065  .00000000  00000+0  00000-0 0  9994
2 56690  80.0000 240.0000 0000000   0.0000 330.0000 13.72670257    19
CTC2_L_00308021-03
1 56691U 22208GS  26070.40846065  .00000000  00000+0  00000-0 0  9998
2 56691  80.0000 240.0000 0000000   0.0000  60.0000 13.72670257    10
CTC2_L_00308021-04
1 56692U 22763SH  26070.40846065  .00000000  00000+0  00000-0 0  9995
2 56692  80.0000 240.0000 0000000   0.0000 150.0000 13.72670257    11
CTC2_L_00308022-01
1 56693U 24196FR  26070.40846065  .00000000  00000+0  00000-0 0  9998
2 56693  80.0000 252.0000 0000000   0.0000 252.0000 13.72670257    18
CTC2_L_00308022-02
1 56694U 24904TM  26070.40846065  .00000000  00000+0  00000-0 0  9996
2 56694  80.0000 252.0000 0000000   0.0000 342.0000 13.72670257    19
CTC2_L_00308022-03
1 56695U 26124UH  26070.40846065  .00000000  00000+0  00000-0 0  9993
2 56695  80.0000 252.0000 0000000   0.0000  72.0000 13.72670257    10
CTC2_L_00308022-04
1 56696U 25382EY  26070.40846065  .00000000  00000+0  00000-0 0  9999
2 56696  80.0000 252.0000 0000000   0.0000 162.0000 13.72670257    11
CTC2_L_00308023-01
1 56697U 23986VG  26070.40846065  .00000000  00000+0  00000-0 0  9998
2 56697  80.0000 264.0000 0000000   0.0000 264.0000 13.72670257    18
CTC2_L_00308023-02
1 56698U 23153EJ  26070.40846065  .00000000  00000+0  00000-0 0  9995
2 56698  80.0000 264.0000 0000000   0.0000 354.0000 13.72670257    19
CTC2_L_00308023-03
1 56699U 24408OM  26070.40846065  .00000000  00000+0  00000-0 0  9990
2 56699  80.0000 264.0000 0000000   0.0000  84.0000 13.72670257    10
CTC2_L_00308023-04
1 56700U 26824KY  26070.40846065  .00000000  00000+0  00000-0 0  9997
2 56700  80.0000 264.0000 0000000   0.0000 174.0000 13.72670257    13
CTC2_L_00308024-01
1 56701U 24245MJ  26070.40846065  .00000000  00000+0  00000-0 0  9993
2 56701  80.0000 276.0000 0000000   0.0000 276.0000 13.72670257    10
CTC2_L_00308024-02
1 56702U 24726VM  26070.40846065  .00000000  00000+0  00000-0 0  9998
2 56702  80.0000 276.0000 0000000   0.0000   6.0000 13.72670257    12
CTC2_L_00308024-03
1 56703U 24357IS  26070.40846065  .00000000  00000+0  00000-0 0  9999
2 56703  80.0000 276.0000 0000000   0.0000  96.0000 13.72670257    12
CTC2_L_00308024-04
1 56704U 22928QH  26070.40846065  .00000000  00000+0  00000-0 0  9992
2 56704  80.0000 276.0000 0000000   0.0000 186.0000 13.72670257    13
CTC2_L_00308025-01
1 56705U 25650QO  26070.40846065  .00000000  00000+0  00000-0 0  9998
2 56705  80.0000 288.0000 0000000   0.0000 288.0000 13.72670257    10
CTC2_L_00308025-02
1 56706U 25355VQ  26070.40846065  .00000000  00000+0  00000-0 0  9991
2 56706  80.0000 288.0000 0000000   0.0000  18.0000 13.72670257    12
CTC2_L_00308025-03
1 56707U 25309YM  26070.40846065  .00000000  00000+0  00000-0 0  9991
2 56707  80.0000 288.0000 0000000   0.0000 108.0000 13.72670257    13
CTC2_L_00308025-04
1 56708U 22797II  26070.40846065  .00000000  00000+0  00000-0 0  9990
2 56708  80.0000 288.0000 0000000   0.0000 198.0000 13.72670257    13
CTC2_L_00308026-01
1 56709U 26565JW  26070.40846065  .00000000  00000+0  00000-0 0  9998
2 56709  80.0000 300.0000 0000000   0.0000 300.0000 13.72670257    14
CTC2_L_00308026-02
1 56710U 26178UG  26070.40846065  .00000000  00000+0  00000-0 0  9990
2 56710  80.0000 300.0000 0000000   0.0000  30.0000 13.72670257    16
CTC2_L_00308026-03
1 56711U 25389LJ  26070.40846065  .00000000  00000+0  00000-0 0  9994
2 56711  80.0000 300.0000 0000000   0.0000 120.0000 13.72670257    17
CTC2_L_00308026-04
1 56712U 26871AR  26070.40846065  .00000000  00000+0  00000-0 0  9992
2 56712  80.0000 300.0000 0000000   0.0000 210.0000 13.72670257    18
CTC2_L_00308027-01
1 56713U 22511HG  26070.40846065  .00000000  00000+0  00000-0 0  9990
2 56713  80.0000 312.0000 0000000   0.0000 312.0000 13.72670257    15
CTC2_L_00308027-02
1 56714U 25936ZG  26070.40846065  .00000000  00000+0  00000-0 0  9995
2 56714  80.0000 312.0000 0000000   0.0000  42.0000 13.72670257    16
CTC2_L_00308027-03
1 56715U 23317MX  26070.40846065  .00000000  00000+0  00000-0 0  9997
2 56715  80.0000 312.0000 0000000   0.0000 132.0000 13.72670257    17
CTC2_L_00308027-04
1 56716U 22216AS  26070.40846065  .00000000  00000+0  00000-0 0  9995
2 56716  80.0000 312.0000 0000000   0.0000 222.0000 13.72670257    18
CTC2_L_00308028-01
1 56717U 22219SO  26070.40846065  .00000000  00000+0  00000-0 0  9999
2 56717  80.0000 324.0000 0000000   0.0000 324.0000 13.72670257    15
CTC2_L_00308028-02
1 56718U 22972OV  26070.40846065  .00000000  00000+0  00000-0 0  9996
2 56718  80.0000 324.0000 0000000   0.0000  54.0000 13.72670257    16
CTC2_L_00308028-03
1 56719U 26949EM  26070.40846065  .00000000  00000+0  00000-0 0  9995
2 56719  80.0000 324.0000 0000000   0.0000 144.0000 13.72670257    17
CTC2_L_00308028-04
1 56720U 22916GQ  26070.40846065  .00000000  00000+0  00000-0 0  9997
2 56720  80.0000 324.0000 0000000   0.0000 234.0000 13.72670257    19
CTC2_L_00308029-01
1 56721U 23791II  26070.40846065  .00000000  00000+0  00000-0 0  9990
2 56721  80.0000 336.0000 0000000   0.0000 336.0000 13.72670257    16
CTC2_L_00308029-02
1 56722U 26253I   26070.40846065  .00000000  00000+0  00000-0 0  9997
2 56722  80.0000 336.0000 0000000   0.0000  66.0000 13.72670257    17
CTC2_L_00308029-03
1 56723U 22783CR  26070.40846065  .00000000  00000+0  00000-0 0  9992
2 56723  80.0000 336.0000 0000000   0.0000 156.0000 13.72670257    18
CTC2_L_00308029-04
1 56724U 26483PG  26070.40846065  .00000000  00000+0  00000-0 0  9994
2 56724  80.0000 336.0000 0000000   0.0000 246.0000 13.72670257    19
CTC2_L_00308030-01
1 56725U 22292KQ  26070.40846065  .00000000  00000+0  00000-0 0  9999
2 56725  80.0000 348.0000 0000000   0.0000 348.0000 13.72670257    16
CTC2_L_00308030-02
1 56726U 23101WF  26070.40846065  .00000000  00000+0  00000-0 0  9990
2 56726  80.0000 348.0000 0000000   0.0000  78.0000 13.72670257    17
CTC2_L_00308030-03
1 56727U 22719Y   26070.40846065  .00000000  00000+0  00000-0 0  9995
2 56727  80.0000 348.0000 0000000   0.0000 168.0000 13.72670257    18
CTC2_L_00308030-04
1 56728U 23709LQ  26070.40846065  .00000000  00000+0  00000-0 0  9996
2 56728  80.0000 348.0000 0000000   0.0000 258.0000 13.72670257    19
